      2.10          N: GNSS NAV DATA                        RINEX VERSION / TYPE
fic2rin                                 12/08/2018 00:19:03 PGM / RUN BY / DATE
                                                            END OF HEADER
29 18 12  7  4  0  0.0 3.208024427295e-04-8.071765478235e-12 0.000000000000e+00
    6.400000000000e+01-1.293750000000e+02 4.062669226480e-09 2.017563271974e+00
   -6.787478923798e-06 6.336077349260e-04 4.347413778305e-06 5.153594938278e+03
    4.464000000000e+05-2.235174179077e-08-8.386481781372e-01-9.313225746155e-09
    9.849998208762e-01 3.054375000000e+02 1.626983638193e+00-8.013190924423e-09
   -4.039453973758e-10 1.000000000000e+00 2.030000000000e+03 0.000000000000e+00
    2.400000000000e+00 0.000000000000e+00-1.024454832077e-08 6.400000000000e+01
    4.392060000000e+05 4.000000000000e+00
20 18 12  7  4  0  0.0 5.196360871196e-04 4.547473508865e-13 0.000000000000e+00
    5.600000000000e+01 2.531250000000e+01 5.390938839956e-09-9.724352007779e-01
    1.328065991402e-06 4.490415216424e-03 6.873160600662e-06 5.153662549973e+03
    4.464000000000e+05-9.872019290924e-08 1.077127451185e+00 9.313225746155e-09
    9.292074871187e-01 2.323125000000e+02 2.193482051492e+00-8.382849179316e-09
    5.557374344091e-10 1.000000000000e+00 2.030000000000e+03 0.000000000000e+00
    2.400000000000e+00 0.000000000000e+00-8.381903171539e-09 5.600000000000e+01
    4.392060000000e+05 4.000000000000e+00
28 18 12  7  4  0  0.0 7.575228810310e-04 1.364242052659e-12 0.000000000000e+00
    8.400000000000e+01 7.175000000000e+01 4.160530445650e-09 2.298159200195e+00
    3.509223461151e-06 1.963545521721e-02 5.364418029785e-07 5.153696733475e+03
    4.464000000000e+05 2.682209014893e-07-1.860651631152e+00-9.685754776001e-08
    9.838180259126e-01 3.767812500000e+02-1.491263620933e+00-7.864970464732e-09
    1.021471119801e-10 1.000000000000e+00 2.030000000000e+03 0.000000000000e+00
    3.400000000000e+00 0.000000000000e+00-1.117587089539e-08 8.400000000000e+01
    4.392060000000e+05 4.000000000000e+00
 4 18 12  7  4  0  0.0-8.612917736173e-05-1.875832822407e-11 0.000000000000e+00
    5.000000000000e+01-9.540625000000e+01 4.881274753258e-09 1.602432768511e+00
   -4.947185516357e-06 1.375877973624e-02 2.505257725716e-06 5.153671102524e+03
    4.464000000000e+05-1.937150955200e-07-1.002710109027e+00 1.937150955200e-07
    9.587779125371e-01 3.341562500000e+02 5.814188420628e-01-8.514283225500e-09
   -3.757299363743e-10 1.000000000000e+00 2.030000000000e+03 0.000000000000e+00
    2.400000000000e+00 6.300000000000e+01-5.587935447693e-09 5.000000000000e+01
    4.392960000000e+05 4.000000000000e+00
23 18 12  7  3 59 44.0-2.042385749519e-04 1.023181539495e-12 0.000000000000e+00
    4.800000000000e+01-2.575000000000e+01 5.121641908372e-09 1.624490797991e-02
   -1.231208443642e-06 1.263414509594e-02 7.204711437225e-06 5.153677846909e+03
    4.463840000000e+05-2.235174179077e-08 2.223002407076e+00 2.272427082062e-07
    9.431135123948e-01 2.326562500000e+02-2.315737239088e+00-8.448923360143e-09
   -4.821629411647e-10 1.000000000000e+00 2.030000000000e+03 0.000000000000e+00
    2.400000000000e+00 0.000000000000e+00-2.002343535423e-08 4.800000000000e+01
    4.439160000000e+05 4.000000000000e+00
 8 18 12  7  3 59 44.0-1.247157342732e-04-1.364242052659e-12 0.000000000000e+00
    0.000000000000e+00-1.149062500000e+02 4.485901141503e-09 1.811351702960e+00
   -5.800276994705e-06 3.892133827321e-03 3.322958946228e-06 5.153666891098e+03
    4.463840000000e+05 1.098960638046e-07-9.147063072692e-01 1.862645149231e-09
    9.699222600810e-01 3.177812500000e+02-4.085358399233e-01-8.233200088688e-09
   -3.714440435639e-10 1.000000000000e+00 2.030000000000e+03 0.000000000000e+00
    2.400000000000e+00 0.000000000000e+00 5.122274160385e-09 0.000000000000e+00
    4.446060000000e+05 4.000000000000e+00
 8 18 12  7  5 59 44.0-1.247250474989e-04-1.364242052659e-12 0.000000000000e+00
    9.000000000000e+00-1.126250000000e+02 4.522688388125e-09 2.861800186310e+00
   -5.729496479034e-06 3.892732085660e-03 2.993270754814e-06 5.153664724350e+03
    4.535840000000e+05-2.048909664154e-08-9.147660367515e-01 7.450580596924e-08
    9.699201373869e-01 3.267500000000e+02-4.087979451039e-01-8.183555163635e-09
   -2.596536727606e-10 1.000000000000e+00 2.030000000000e+03 0.000000000000e+00
    2.400000000000e+00 0.000000000000e+00 5.122274160385e-09 9.000000000000e+00
    4.464060000000e+05 4.000000000000e+00
23 18 12  7  5 59 44.0-2.042311243713e-04 1.023181539495e-12 0.000000000000e+00
    4.900000000000e+01-3.018750000000e+01 5.153071788981e-09 1.066452372651e+00
   -1.424923539162e-06 1.263334066607e-02 7.133930921555e-06 5.153676221848e+03
    4.535840000000e+05-1.881271600723e-07 2.222942858996e+00 4.097819328308e-08
    9.431094235388e-01 2.372187500000e+02-2.315761827815e+00-8.389278018532e-09
   -6.760995908332e-10 1.000000000000e+00 2.030000000000e+03 0.000000000000e+00
    2.400000000000e+00 0.000000000000e+00-2.002343535423e-08 4.900000000000e+01
    4.464060000000e+05 4.000000000000e+00
 2 18 12  7  6  0  0.0-7.894914597273e-05-1.034550223267e-11 0.000000000000e+00
    3.700000000000e+01-6.137500000000e+01 4.560904265684e-09 6.220918428623e-01
   -3.185123205185e-06 1.852796354797e-02 1.175887882710e-05 5.153611639023e+03
    4.536000000000e+05-2.644956111908e-07 8.558458144420e-02-2.235174179077e-08
    9.530559761840e-01 1.565937500000e+02-1.808459094060e+00-8.216056517447e-09
    6.035965707914e-11 1.000000000000e+00 2.030000000000e+03 0.000000000000e+00
    2.400000000000e+00 0.000000000000e+00-2.048909664154e-08 3.700000000000e+01
    4.464060000000e+05 4.000000000000e+00
 1 18 12  7  6  0  0.0-1.251441426575e-04-5.684341886081e-12 0.000000000000e+00
    5.800000000000e+01-6.884375000000e+01 4.042311235631e-09 2.864604815317e-01
   -3.479421138763e-06 8.185134967789e-03 1.109950244427e-05 5.153667276382e+03
    4.536000000000e+05 3.352761268616e-08 1.507175842323e-01 1.173466444016e-07
    9.739503260147e-01 1.711875000000e+02 6.945286236192e-01-7.752108620726e-09
    1.757216052245e-10 1.000000000000e+00 2.030000000000e+03 0.000000000000e+00
    2.400000000000e+00 0.000000000000e+00 5.587935447693e-09 5.800000000000e+01
    4.464060000000e+05 4.000000000000e+00
 5 18 12  7  6  0  0.0 2.505257725716e-07 2.273736754432e-13 0.000000000000e+00
    5.000000000000e+01 2.696875000000e+01 5.113784438220e-09-3.091687565928e+00
    1.357868313789e-06 5.579479737207e-03 5.859881639481e-06 5.153578596115e+03
    4.536000000000e+05 1.303851604462e-08 1.168605493201e+00-4.842877388000e-08
    9.484591481820e-01 2.608750000000e+02 7.248945502420e-01-8.182126532698e-09
    3.907305612105e-10 1.000000000000e+00 2.030000000000e+03 0.000000000000e+00
    2.400000000000e+00 0.000000000000e+00-1.117587089539e-08 5.000000000000e+01
    4.464060000000e+05 4.000000000000e+00
 6 18 12  7  6  0  0.0 3.208173438907e-04-6.821210263297e-12 0.000000000000e+00
    7.200000000000e+01-6.012500000000e+01 3.925520656549e-09 6.278191276438e-01
   -3.172084689140e-06 1.181214931421e-03 1.185201108456e-05 5.153757879257e+03
    4.536000000000e+05-2.607703208923e-08 1.424203517622e-01-4.284083843231e-08
    9.736358074052e-01 1.597500000000e+02-1.229443757645e+00-7.611031315719e-09
    2.092944322389e-10 1.000000000000e+00 2.030000000000e+03 0.000000000000e+00
    2.400000000000e+00 0.000000000000e+00 4.656612873077e-09 7.200000000000e+01
    4.464060000000e+05 4.000000000000e+00
 3 18 12  7  6  0  0.0 1.673796214163e-04 3.410605131648e-12 0.000000000000e+00
    1.110000000000e+02 2.400000000000e+01 4.803771524937e-09-8.287137165098e-01
    1.145526766777e-06 1.866456819698e-03 6.195157766342e-06 5.153618551254e+03
    4.536000000000e+05 2.048909664154e-08 1.193100934380e+00 7.450580596924e-09
    9.615615881683e-01 2.609062500000e+02 7.117794326075e-01-8.094980045554e-09
    3.600149960697e-10 1.000000000000e+00 2.030000000000e+03 0.000000000000e+00
    3.400000000000e+00 0.000000000000e+00 2.328306436539e-09 1.110000000000e+02
    4.464060000000e+05 4.000000000000e+00
 7 18 12  7  6  0  0.0 7.509998977184e-05-6.934897101019e-12 0.000000000000e+00
    4.600000000000e+01 8.850000000000e+01 4.318751321899e-09-3.475601577328e-01
    4.785135388374e-06 1.209906744771e-02 1.078657805920e-05 5.153635225296e+03
    4.536000000000e+05 8.381903171539e-08-2.980294157397e+00 1.825392246246e-07
    9.573490219323e-01 1.717187500000e+02-2.480306504116e+00-8.023905656449e-09
   -4.643050544549e-11 1.000000000000e+00 2.030000000000e+03 0.000000000000e+00
    2.400000000000e+00 0.000000000000e+00-1.117587089539e-08 4.600000000000e+01
    4.464060000000e+05 4.000000000000e+00
 4 18 12  7  6  0  0.0-8.626421913505e-05-1.875832822407e-11 0.000000000000e+00
    5.100000000000e+01-1.074375000000e+02 4.676980529298e-09 2.652492022025e+00
   -5.649402737617e-06 1.375790417660e-02 2.047047019005e-06 5.153674644470e+03
    4.536000000000e+05-1.192092895508e-07-1.002771185856e+00-1.527369022369e-07
    9.587769908987e-01 3.417187500000e+02 5.815431374345e-01-8.208913362763e-09
   -2.525105180766e-10 1.000000000000e+00 2.030000000000e+03 0.000000000000e+00
    2.400000000000e+00 6.300000000000e+01-5.587935447693e-09 5.100000000000e+01
    4.464060000000e+05 4.000000000000e+00
15 18 12  7  6  0  0.0-3.371797502041e-04 1.364242052659e-12 0.000000000000e+00
    6.000000000000e+00-2.615625000000e+01 5.528801725355e-09 1.573200334223e+00
   -1.365318894386e-06 1.111761771608e-02 6.962567567825e-06 5.153598045349e+03
    4.536000000000e+05-1.899898052216e-07 2.150765383394e+00 5.774199962616e-08
    9.277538863647e-01 2.322187500000e+02 7.428037557523e-01-8.507497228551e-09
   -5.878816304868e-10 1.000000000000e+00 2.030000000000e+03 0.000000000000e+00
    2.400000000000e+00 0.000000000000e+00-1.117587089539e-08 6.000000000000e+00
    4.464060000000e+05 4.000000000000e+00
